$$SOE
2460735.500000000, A.D. 2025-Mar-01 00:00:00.0000, 1.873546935205395E+07, -2.456028356104057E+08, -5.488612058235087E+07,
2460742.500000000, A.D. 2025-Mar-08 00:00:00.0000, 3.486145262730557E+07, -2.461316208750563E+08, -5.405086416627161E+07,
2460749.500000000, A.D. 2025-Mar-15 00:00:00.0000, 5.088490116426557E+07, -2.459350321392860E+08, -5.305629154385790E+07,
2460756.500000000, A.D. 2025-Mar-22 00:00:00.0000, 6.676257868227876E+07, -2.450328408711400E+08, -5.190947443906367E+07,
2460763.500000000, A.D. 2025-Mar-29 00:00:00.0000, 8.245448329677607E+07, -2.434479708190895E+08, -5.061801137020448E+07,
2460770.500000000, A.D. 2025-Apr-05 00:00:00.0000, 9.792405827349889E+07, -2.412059590575573E+08, -4.918989225337256E+07,
2460777.500000000, A.D. 2025-Apr-12 00:00:00.0000, 1.131383070017387E+08, -2.383344222870045E+08, -4.763336999108912E+07,
2460784.500000000, A.D. 2025-Apr-19 00:00:00.0000, 1.280678217800366E+08, -2.348625452088162E+08, -4.595684215575922E+07,
2460791.500000000, A.D. 2025-Apr-26 00:00:00.0000, 1.426867386021409E+08, -2.308206034694350E+08, -4.416874490600504E+07,
2460798.500000000, A.D. 2025-May-03 00:00:00.0000, 1.569726309978958E+08, -2.262395298029419E+08, -4.227746034968099E+07,
2460805.500000000, A.D. 2025-May-10 00:00:00.0000, 1.709063559860662E+08, -2.211505286352426E+08, -4.029123778489891E+07,
2460812.500000000, A.D. 2025-May-17 00:00:00.0000, 1.844718645712755E+08, -2.155847415255997E+08, -3.821812862362036E+07,
2460819.500000000, A.D. 2025-May-24 00:00:00.0000, 1.976559882257593E+08, -2.095729634349913E+08, -3.606593433766229E+07,
2460826.500000000, A.D. 2025-May-31 00:00:00.0000, 2.104482116094874E+08, -2.031454076118961E+08, -3.384216642570597E+07,
2460833.500000000, A.D. 2025-Jun-07 00:00:00.0000, 2.228404393873112E+08, -1.963315146840427E+08, -3.155401704290614E+07,
2460840.500000000, A.D. 2025-Jun-14 00:00:00.0000, 2.348267614522411E+08, -1.891598025604906E+08, -2.920833880350673E+07,
2460847.500000000, A.D. 2025-Jun-21 00:00:00.0000, 2.464032229531446E+08, -1.816577558775779E+08, -2.681163278948123E+07,
2460854.500000000, A.D. 2025-Jun-28 00:00:00.0000, 2.575676061062120E+08, -1.738517485233711E+08, -2.437004360854952E+07,
2460861.500000000, A.D. 2025-Jul-05 00:00:00.0000, 2.683192249829966E+08, -1.657669924622290E+08, -2.188935997760426E+07,
2460868.500000000, A.D. 2025-Jul-12 00:00:00.0000, 2.786587338381920E+08, -1.574275092920465E+08, -1.937501969439686E+07,
2460875.500000000, A.D. 2025-Jul-19 00:00:00.0000, 2.885879501373258E+08, -1.488561210932468E+08, -1.683211809220135E+07,
2460882.500000000, A.D. 2025-Jul-26 00:00:00.0000, 2.981096928378962E+08, -1.400744570181857E+08, -1.426541915663688E+07,
2460889.500000000, A.D. 2025-Aug-02 00:00:00.0000, 3.072276358522296E+08, -1.311029724129301E+08, -1.167936858636316E+07,
2460896.500000000, A.D. 2025-Aug-09 00:00:00.0000, 3.159461762289117E+08, -1.219609777160985E+08, -9.078108194601931E+06,
2460903.500000000, A.D. 2025-Aug-16 00:00:00.0000, 3.242703164012891E+08, -1.126666748272911E+08, -6.465491164019704E+06,
2460910.500000000, A.D. 2025-Aug-23 00:00:00.0000, 3.322055599099703E+08, -1.032371989274063E+08, -3.845097775877751E+06,
2460917.500000000, A.D. 2025-Aug-30 00:00:00.0000, 3.397578199563865E+08, -9.368866336888060E+07, -1.220251263174377E+06,
2460924.500000000, A.D. 2025-Sep-06 00:00:00.0000, 3.469333383663224E+08, -8.403620526894380E+07, 1.405966675955594E+06,
2460931.500000000, A.D. 2025-Sep-13 00:00:00.0000, 3.537386122871166E+08, -7.429403318680215E+07, 4.030700846989639E+06,
2460938.500000000, A.D. 2025-Sep-20 00:00:00.0000, 3.601803309060876E+08, -6.447547764625891E+07, 6.651307717061788E+06,
2460945.500000000, A.D. 2025-Sep-27 00:00:00.0000, 3.662653223119409E+08, -5.459304069512254E+07, 9.265341020690287E+06,
2460952.500000000, A.D. 2025-Oct-04 00:00:00.0000, 3.720005076087556E+08, -4.465844342734515E+07, 1.187053811108394E+07,
2460959.500000000, A.D. 2025-Oct-11 00:00:00.0000, 3.773928610993750E+08, -3.468267201179356E+07, 1.446480705715576E+07,
2460966.500000000, A.D. 2025-Oct-18 00:00:00.0000, 3.824493760770457E+08, -2.467602221322637E+07, 1.704621446012203E+07,
2460973.500000000, A.D. 2025-Oct-25 00:00:00.0000, 3.871770356848707E+08, -1.464814219440237E+07, 1.961297398391728E+07,
2460980.500000000, A.D. 2025-Nov-01 00:00:00.0000, 3.915827882663977E+08, -4.608073454635640E+06, 2.216343559066610E+07,
2460987.500000000, A.D. 2025-Nov-08 00:00:00.0000, 3.956735266874746E+08, 5.435710136642305E+06, 2.469607545959693E+07,
2460994.500000000, A.D. 2025-Nov-15 00:00:00.0000, 3.994560712808739E+08, 1.547526518078441E+07, 2.720948654813764E+07,
2461001.500000000, A.D. 2025-Nov-22 00:00:00.0000, 4.029371563724866E+08, 2.550314367867093E+07, 2.970236974808502E+07,
2461008.500000000, A.D. 2025-Nov-29 00:00:00.0000, 4.061234198407127E+08, 3.551236115142505E+07, 3.217352571224242E+07,
2461015.500000000, A.D. 2025-Dec-06 00:00:00.0000, 4.090213930866665E+08, 4.549636776786014E+07, 3.462184751710595E+07,
2461022.500000000, A.D. 2025-Dec-13 00:00:00.0000, 4.116374915472380E+08, 5.544901904061930E+07, 3.704631381348291E+07,
2461029.500000000, A.D. 2025-Dec-20 00:00:00.0000, 4.139780089737170E+08, 6.536454703546190E+07, 3.944598219410662E+07,
2461036.500000000, A.D. 2025-Dec-27 00:00:00.0000, 4.160491141637692E+08, 7.523753460264246E+07, 4.181998305496362E+07,
2461043.500000000, A.D. 2026-Jan-03 00:00:00.0000, 4.178568484809265E+08, 8.506289192909828E+07, 4.416751400177323E+07,
2461050.500000000, A.D. 2026-Jan-10 00:00:00.0000, 4.194071240912551E+08, 9.483583464468110E+07, 4.648783470525493E+07,
2461057.500000000, A.D. 2026-Jan-17 00:00:00.0000, 4.207057229923800E+08, 1.045518633030080E+08, 4.878026214691322E+07,
2461064.500000000, A.D. 2026-Jan-24 00:00:00.0000, 4.217582967756312E+08, 1.142067441731880E+08, 5.104416622213008E+07,
2461071.500000000, A.D. 2026-Jan-31 00:00:00.0000, 4.225703670255905E+08, 1.237964912509708E+08, 5.327896567154145E+07,
2461078.500000000, A.D. 2026-Feb-07 00:00:00.0000, 4.231473263154407E+08, 1.333173493507839E+08, 5.548412430581066E+07,
2461085.500000000, A.D. 2026-Feb-14 00:00:00.0000, 4.234944399621091E+08, 1.427657781849270E+08, 5.765914747635608E+07,
2461092.500000000, A.D. 2026-Feb-21 00:00:00.0000, 4.236168488507158E+08, 1.521384379309866E+08, 5.980357878178058E+07,
2461099.500000000, A.D. 2026-Feb-28 00:00:00.0000, 4.235195721739589E+08, 1.614321773692474E+08, 6.191699718300801E+07,
2461106.500000000, A.D. 2026-Mar-07 00:00:00.0000, 4.232075079694616E+08, 1.706440225739806E+08, 6.399901453796957E+07,
2461113.500000000, A.D. 2026-Mar-14 00:00:00.0000, 4.226854341820781E+08, 1.797711637616438E+08, 6.604927309326586E+07,
2461120.500000000, A.D. 2026-Mar-21 00:00:00.0000, 4.219580119887671E+08, 1.888109431328984E+08, 6.806744298898153E+07,
2461127.500000000, A.D. 2026-Mar-28 00:00:00.0000, 4.210297893373018E+08, 1.977608446824600E+08, 7.005322002963862E+07,
2461134.500000000, A.D. 2026-Apr-04 00:00:00.0000, 4.199052040638554E+08, 2.066184849610403E+08, 7.200632368451881E+07,
2461141.500000000, A.D. 2026-Apr-11 00:00:00.0000, 4.185885868383113E+08, 2.153816043819539E+08, 7.392649525104406E+07,
2461148.500000000, A.D. 2026-Apr-18 00:00:00.0000, 4.170841640757167E+08, 2.240480590203784E+08, 7.581349615517560E+07,
2461155.500000000, A.D. 2026-Apr-25 00:00:00.0000, 4.153960608417870E+08, 2.326158128770689E+08, 7.766710637554209E+07,
2461162.500000000, A.D. 2026-May-02 00:00:00.0000, 4.135283037676244E+08, 2.410829305368377E+08, 7.948712297634530E+07,
2461169.500000000, A.D. 2026-May-09 00:00:00.0000, 4.114848240850707E+08, 2.494475701185210E+08, 8.127335872315389E+07,
2461176.500000000, A.D. 2026-May-16 00:00:00.0000, 4.092694611497860E+08, 2.577079766203384E+08, 8.302564074982573E+07,
2461183.500000000, A.D. 2026-May-23 00:00:00.0000, 4.068859664942887E+08, 2.658624766504251E+08, 8.474380934723803E+07,
2461190.500000000, A.D. 2026-May-30 00:00:00.0000, 4.043380063231138E+08, 2.739094748324596E+08, 8.642771708287878E+07,
2461197.500000000, A.D. 2026-Jun-06 00:00:00.0000, 4.016291621266345E+08, 2.818474485873878E+08, 8.807722800669278E+07,
2461204.500000000, A.D. 2026-Jun-13 00:00:00.0000, 3.987629330765516E+08, 2.896749414652975E+08, 8.969221661750038E+07,
2461211.500000000, A.D. 2026-Jun-20 00:00:00.0000, 3.957427396979658E+08, 2.973905579291030E+08, 9.127256686891039E+07,
2461218.500000000, A.D. 2026-Jun-27 00:00:00.0000, 3.925719271159276E+08, 3.049929592283537E+08, 9.281817133711146E+07,
2461225.500000000, A.D. 2026-Jul-04 00:00:00.0000, 3.892537678741198E+08, 3.124808595684998E+08, 9.432893048228309E+07,
2461232.500000000, A.D. 2026-Jul-11 00:00:00.0000, 3.857914645783137E+08, 3.198530224253018E+08, 9.580475196500415E+07,
2461239.500000000, A.D. 2026-Jul-18 00:00:00.0000, 3.821881524565797E+08, 3.271082570129967E+08, 9.724555000703822E+07,
2461246.500000000, A.D. 2026-Jul-25 00:00:00.0000, 3.784469018604217E+08, 3.342454148930814E+08, 9.865124479059993E+07,
2461253.500000000, A.D. 2026-Aug-01 00:00:00.0000, 3.745707207550901E+08, 3.412633866609772E+08, 1.000217618842408E+08,
2461260.500000000, A.D. 2026-Aug-08 00:00:00.0000, 3.705625574146184E+08, 3.481610986612736E+08, 1.013570316695790E+08,
2461267.500000000, A.D. 2026-Aug-15 00:00:00.0000, 3.664253037378581E+08, 3.549375101693490E+08, 1.026569887647607E+08,
2461274.500000000, A.D. 2026-Aug-22 00:00:00.0000, 3.621617984253936E+08, 3.615916122481666E+08, 1.039215716112835E+08,
2461281.500000000, A.D. 2026-Aug-29 00:00:00.0000, 3.577748277280485E+08, 3.681224268963761E+08, 1.051507223191468E+08,
2461288.500000000, A.D. 2026-Sep-05 00:00:00.0000, 3.532671259020929E+08, 3.745290036111055E+08, 1.063443863385825E+08,
2461295.500000000, A.D. 2026-Sep-12 00:00:00.0000, 3.486413778290511E+08, 3.808104158521269E+08, 1.075025119354862E+08,
2461302.500000000, A.D. 2026-Sep-19 00:00:00.0000, 3.439002219279012E+08, 3.869657589420382E+08, 1.086250497664398E+08,
$$EOE